HIMAWARI-8              
1 40267U 14060A   24136.90566896 -.00000275  00000+0  00000+0 0  9998
2 40267   0.0283 181.3459 0001136 274.8796 244.5646  1.00269588 35119
